261P/Larson,e,6.0731,291.1357,67.2161,3.490418,0.1511430,0.42336199,165.5889,06/19.0/2022,2000,g 14.0,4.0
# From MPC 82322
262P/McNaught-Russell,e,29.2687,217.8682,171.0389,6.872557,0.0547049,0.81613832,190.5915,06/19.0/2022,2000,g 13.5,4.0
# From MPC 89018
263P/Gibbs,e,11.5212,105.5191,35.0081,3.042558,0.1857145,0.59356103,318.1095,06/19.0/2022,2000,g  9.0,4.0
# From MPC114608
264P/Larsen,e,25.2588,220.3580,346.7196,3.888152,0.1285551,0.37570973,134.9477,06/19.0/2022,2000,g 13.0,4.0
# From MPC 79870
265P/LINEAR,e,14.3649,342.9260,33.4622,4.254869,0.1122987,0.64760967,55.5735,06/19.0/2022,2000,g 14.5,4.0
# From MPEC 2021-F20
266P/Christensen,e,3.4270,4.9982,97.7002,3.532354,0.1484594,0.33965449,117.3998,06/19.0/2022,2000,g 14.7,4.0
# From MPC114608
267P/LONEOS,e,6.1418,228.5806,114.2122,3.211177,0.1712804,0.61441722,244.2751,06/19.0/2022,2000,g 19.5,4.0
# From MPC 92277
268P/Bernardi,e,15.8572,126.9459,359.8001,4.563238,0.1011101,0.47784784,267.4723,06/19.0/2022,2000,g 14.0,4.0
# From MPC104795
269P/Jedicke,e,7.0780,241.7313,225.7448,7.071567,0.0524120,0.43106226,147.7964,06/19.0/2022,2000,g 10.0,4.0
# From MPC 88332
270P/Gehrels,e,2.9228,223.0132,209.7715,6.661219,0.0573289,0.46845907,189.0127,06/19.0/2022,2000,g  8.0,4.0
# From MPC 92277
271P/van Houten-Lemmon,e,6.8723,9.3185,36.3879,7.038398,0.0527829,0.39524682,172.0877,06/19.0/2022,2000,g 11.0,4.0
# From MPEC 2022-C56
272P/NEAT,e,18.0742,109.4701,27.8972,4.460129,0.1046364,0.45468208,357.0647,06/19.0/2022,2000,g 16.0,2.0
# From MPC 82723
273P/Pons-Gambart,e,136.7553,320.3990,20.3235,31.93604,0.0054611,0.97425115,0.0000,12/20.3105/2012,2000,g 11.5,4.0
# From MPEC 2022-L66
274P/Tombaugh-Tenagra,e,15.8154,81.3382,38.4681,4.375910,0.1076717,0.43939527,7.7030,06/19.0/2022,2000,g 13.0,4.0
# From MPC 81862
275P/Hermann,e,21.2753,348.7574,173.9994,5.776114,0.0709987,0.71265531,246.7194,06/19.0/2022,2000,g 17.0,4.0
# From MPEC 2022-K19
276P/Vorobjov,e,14.8102,211.3619,199.5472,5.322832,0.0802583,0.26766247,287.0828,06/19.0/2022,2000,g 11.5,4.0
# From MPEC 2021-F20
277P/LINEAR,e,16.7770,276.3253,152.3178,3.853410,0.1302975,0.50596557,69.8090,06/19.0/2022,2000,g 15.1,4.0
# From MPEC 2021-S45
278P/McNaught,e,6.6964,15.3827,237.7780,3.687252,0.1392034,0.43613210,89.8397,06/19.0/2022,2000,g 14.0,4.0
# From MPEC 2022-K19
279P/LaSagra,e,5.0525,346.2329,5.8523,3.572862,0.1459418,0.39871378,315.5482,06/19.0/2022,2000,g 14.0,4.0
# From MPEC 2022-K19
280P/Larsen,e,11.7736,131.3930,104.7519,4.530015,0.1022244,0.41731356,317.9113,06/19.0/2022,2000,g 12.5,4.0
# From MPEC 2021-W31
281P/MOSS,e,4.7188,87.1806,26.6587,4.875202,0.0915620,0.17244360,339.1580,06/19.0/2022,2000,g 11.0,4.0
# From MPC133426
282P/,e,5.8117,9.2978,217.6305,4.239323,0.1129170,0.18829983,26.8040,06/19.0/2022,2000,g 13.5,2.0
# From MPEC 2022-K19
283P/Spacewatch,e,14.4552,161.1295,22.2326,4.136824,0.1171395,0.48459458,33.2723,06/19.0/2022,2000,g 16.0,2.0
# From MPEC 2022-K19
284P/McNaught,e,11.8613,144.2607,202.4127,3.676036,0.1398410,0.37550471,39.0750,06/19.0/2022,2000,g 13.0,4.0
# From MPC 85339
285P/LINEAR,e,25.0383,185.5080,178.4393,4.507866,0.1029787,0.61860983,338.6438,06/19.0/2022,2000,g 15.0,4.0
# From MPEC 2021-O56
286P/Christensen,e,17.0432,283.9542,24.8620,4.111229,0.1182351,0.42571825,4.4158,06/19.0/2022,2000,g 14.0,4.0
# From MPEC 2022-L66
287P/Christensen,e,16.3201,139.0420,189.0719,4.163324,0.1160229,0.27108908,315.7994,06/19.0/2022,2000,g 13.5,4.0
# From MPC133426
288P/,e,3.2381,83.1262,280.2382,3.049367,0.1850928,0.20084543,20.2100,06/19.0/2022,2000,g 16.0,2.0
# From MPEC 2022-K19
289P/Blanpain,e,5.8973,68.8832,9.8427,3.045961,0.1854033,0.68576350,168.8962,06/19.0/2022,2000,g 19.0,4.0
# From MPC 95214
290P/Jager,e,20.0600,302.6784,181.8760,6.215591,0.0636034,0.62750300,195.0394,06/19.0/2022,2000,g 10.5,4.0
# From MPEC 2021-N06
291P/NEAT,e,6.2987,237.7969,173.5810,4.541174,0.1018478,0.43568601,327.4369,06/19.0/2022,2000,g 13.0,4.0
# From MPEC 2022-K19
292P/Li,e,24.2793,90.9454,319.4917,6.103874,0.0653575,0.58918485,199.9331,06/19.0/2022,2000,g 12.5,4.0
# From MPEC 2022-L66
293P/Spacewatch,e,9.0581,78.3991,40.9889,3.641943,0.1418092,0.41826658,77.5540,06/19.0/2022,2000,g 14.5,4.0
# From MPEC 2020-SI8
294P/LINEAR,e,18.0158,311.9983,235.6018,3.189146,0.1730583,0.60210577,160.7010,06/19.0/2022,2000,g 15.5,4.0
# From MPEC 2022-K19
295P/LINEAR,e,21.0740,7.4397,72.8724,5.305833,0.0806443,0.61669127,239.3744,06/19.0/2022,2000,g 12.0,4.0
# From MPEC 2021-N06
296P/Garradd,e,25.2358,263.5743,350.0342,3.493646,0.1509335,0.47873431,96.5023,06/19.0/2022,2000,g 14.0,4.0
# From MPC102956
297P/Beshore,e,10.3080,97.5090,133.0692,3.453019,0.1536051,0.32043677,78.4286,06/19.0/2022,2000,g 15.0,4.0
# From MPC114609
298P/Christensen,e,7.8708,52.8219,100.6510,3.590616,0.1448607,0.38633059,94.2907,06/19.0/2022,2000,g 15.0,4.0
# From MPEC 2022-CN4
299P/Catalina-PANSTARRS,e,10.4695,271.6153,323.8171,4.387045,0.1072620,0.28102977,286.8455,06/19.0/2022,2000,g 11.5,4.0
# From MPEC 2022-ED3
300P/Catalina,e,5.6739,95.6340,222.9334,2.699392,0.2222313,0.69174876,294.1993,06/19.0/2022,2000,g 16.0,4.0
# From MPC 89014
301P/LINEAR-NEAT,e,10.3396,351.1745,193.6172,5.739822,0.0716731,0.58521479,204.7189,06/19.0/2022,2000,g 13.0,4.0
# From MPEC 2022-K19
302P/Lemmon-PANSTARRS,e,6.0336,121.7444,208.3913,4.274237,0.1115363,0.23031956,249.2432,06/19.0/2022,2000,g 12.5,4.0
# From MPC 92278
303P/NEAT,e,7.0215,347.9717,356.9457,5.045042,0.0869775,0.51092979,243.3698,06/19.0/2022,2000,g 13.5,4.0
# From MPEC 2022-K19
304P/Ory,e,2.6071,58.9139,335.2487,3.150727,0.1762333,0.60079648,119.0135,06/19.0/2022,2000,g 16.5,4.0
# From MPC101100
305P/Skiff,e,11.6620,240.1029,147.3384,4.641766,0.0985551,0.69381038,273.0603,06/19.0/2022,2000,g 18.0,4.0
# From MPC 92278
306P/LINEAR,e,8.3110,341.3735,0.8712,3.123819,0.1785153,0.59328667,156.7142,06/19.0/2022,2000,g 19.0,4.0
# From MPC 92278
307P/LINEAR,e,4.4357,158.1691,222.1369,5.790578,0.0707329,0.67535633,193.3904,06/19.0/2022,2000,g 15.0,4.0
# From MPEC 2022-C56
308P/Lagerkvist-Carsenty,e,4.8531,63.0531,333.6193,6.600814,0.0581176,0.36426918,150.9808,06/19.0/2022,2000,g 13.0,2.0
# From MPC 94284
309P/LINEAR,e,17.0237,10.1474,49.9370,4.372656,0.1077919,0.61802241,290.0202,06/19.0/2022,2000,g 15.0,4.0
# From MPC 98566
310P/Hill,e,13.1278,8.9216,31.7749,4.180535,0.1153072,0.42218196,303.2371,06/19.0/2022,2000,g 13.5,4.0
# From MPEC 2021-BE3
311P/PANSTARRS,e,4.9698,279.2134,144.5212,2.188299,0.3044697,0.11578295,188.6521,06/19.0/2022,2000,g 17.0,4.0
# From MPEC 2021-BE3
312P/NEAT,e,19.7674,144.6704,207.6159,3.468577,0.1525728,0.42785959,96.3992,06/19.0/2022,2000,g 16.0,4.0
# From MPEC 2021-S45
313P/Gibbs,e,10.9802,105.9671,254.7952,3.163654,0.1751542,0.23503984,139.0929,06/19.0/2022,2000,g 15.0,4.0
# From MPC105243
314P/Montani,e,3.9834,267.6065,213.9940,7.261726,0.0503668,0.41633956,104.7994,06/19.0/2022,2000,g  9.5,4.0
# From MPEC 2021-N06
315P/LONEOS,e,17.7401,68.8115,65.7309,4.940088,0.0897640,0.52093600,182.3433,06/19.0/2022,2000,g 11.0,4.0
# From MPC 92279
316P/LONEOS-Christensen,e,9.8255,246.4073,192.4014,4.375777,0.1076766,0.15594372,265.4149,06/19.0/2022,2000,g 13.5,4.0
# From MPEC 2020-C98
317P/WISE,e,11.9516,275.4903,334.8531,2.962904,0.1932536,0.57049799,121.9359,06/19.0/2022,2000,g 17.5,4.0
# From MPC102103
318P/McNaught-Hartley,e,17.8854,35.5267,313.2774,7.502025,0.0479663,0.67528057,116.4649,06/19.0/2022,2000,g  8.5,6.0
# From MPC 97499
319P/Catalina-McNaught,e,15.0945,111.3675,203.6769,3.567071,0.1462974,0.66668574,11.6410,06/19.0/2022,2000,g 15.0,4.0
# From MPC 96281
320P/McNaught,e,4.9076,295.9392,0.7839,3.093886,0.1811121,0.68549475,93.8042,06/19.0/2022,2000,g 20.5,4.0
# From MPC105243
321P/SOHO,e,20.0939,165.0169,172.7493,2.423393,0.2612572,0.98111006,0.0000,10/26.5375/2023,2000,g 20.0,4.0
# From MPC102103
322P/SOHO,e,11.4682,351.5307,56.8733,2.507832,0.2481741,0.97992758,0.0000,08/21.0806/2023,2000,g 19.0,4.0
# From MPEC 2016-Y36
323P/SOHO,e,5.3323,324.3889,353.0489,2.583131,0.2374020,0.98481072,0.0000,01/17.8145/2021,2000,g 20.0,4.0
# From MPEC 2021-W31
324P/LaSagra,e,21.4044,270.5848,57.5354,3.094500,0.1810582,0.15385351,74.1976,06/19.0/2022,2000,g 13.0,4.0
# From MPEC 2022-L66
325P/Yang-Gao,e,16.6944,257.5595,343.7061,3.522655,0.1490730,0.59336326,12.1953,06/19.0/2022,2000,g 14.0,4.0
# From MPC103849
326P/Hill,e,2.4710,99.8088,278.6350,4.062642,0.1203625,0.31812734,292.6528,06/19.0/2022,2000,g 13.5,4.0
# From MPEC 2022-L66
327P/VanNess,e,36.2511,173.9851,185.0410,3.563066,0.1465441,0.56328446,348.9472,06/19.0/2022,2000,g 16.0,4.0
# From MPC109148
328P/LONEOS-Tucker,e,17.6730,341.6343,30.5364,4.192363,0.1148195,0.55261133,271.6020,06/19.0/2022,2000,g 14.5,4.0
# From MPC101101
329P/LINEAR-Catalina,e,21.6916,87.6613,343.5320,5.189440,0.0833726,0.67780723,199.4760,06/19.0/2022,2000,g 13.5,4.0
# From MPEC 2022-K19
330P/Catalina,e,15.7018,293.0878,188.8858,6.624411,0.0578074,0.54850900,122.7566,06/19.0/2022,2000,g 12.0,4.0
# From MPEC 2022-C56
331P/Gibbs,e,9.7384,216.7567,184.3146,3.005191,0.1891891,0.04118512,118.1674,06/19.0/2022,2000,g 12.0,4.0
# From MPEC 2016-K18
332P/Ikeya-Murakami,e,9.3801,3.7865,152.3193,3.088331,0.1816010,0.48935898,55.3208,06/19.0/2022,2000,g 18.0,4.0
# From MPEC 2016-EI8
332P-B/Ikeya-Murakami,e,9.3805,3.8028,152.3711,3.082329,0.1821317,0.48970701,359.9699,03/17.0/2016,2000,g 19.0,4.0
# From MPEC 2016-K18
332P-C/Ikeya-Murakami,e,9.3791,3.7869,152.3106,3.088297,0.1816040,0.48936445,55.3359,06/19.0/2022,2000,g 16.5,4.0
# From MPEC 2016-ED0
332P-D/Ikeya-Murakami,e,9.3761,3.7923,152.4393,3.081138,0.1822373,0.48977814,359.9486,03/17.0/2016,2000,g 19.0,4.0
# From MPEC 2016-ED0
332P-E/Ikeya-Murakami,e,9.3774,3.8228,152.2825,3.079877,0.1823493,0.48922008,359.9889,03/17.0/2016,2000,g 21.0,4.0
# From MPEC 2016-ED0
332P-F/Ikeya-Murakami,e,9.5293,3.4757,152.8203,3.163214,0.1751908,0.49918860,359.8501,03/17.0/2016,2000,g 21.0,4.0
# From MPEC 2016-ED0
332P-G/Ikeya-Murakami,e,9.2523,3.6955,154.4000,3.050519,0.1849880,0.49200362,359.9006,03/19.0/2016,2000,g 19.0,4.0
